ONEWEB-0545             
1 54647U 22166F   25358.78594927 -.00000038  00000+0 -12358-3 0  9991
2 54647  87.9227 278.7725 0002125  81.4431 278.6944 13.21828275148464
ONEWEB-0580             
1 54648U 22166G   25358.75963400  .00000016  00000+0  73938-5 0  9992
2 54648  87.9228 278.7768 0001999  83.1327 277.0035 13.21826978148501
ONEWEB-0582             
1 54649U 22166H   25358.80241536  .00000041  00000+0  67913-4 0  9991
2 54649  87.9231 278.7612 0002165  86.2408 273.8974 13.21827143148482
ONEWEB-0583             
1 54650U 22166J   25358.81393522  .00000104  00000+0  22142-3 0  9991
2 54650  87.9224 278.7833 0001870  76.6686 283.4656 13.21827061148498
ONEWEB-0584             
1 54651U 22166K   25358.75798510  .00000004  00000+0 -21935-4 0  9991
2 54651  87.9229 278.7809 0001923  85.9462 274.1892 13.21825889148474
ONEWEB-0585             
1 54652U 22166L   25358.85836813 -.00000008  00000+0 -50986-4 0  9995
2 54652  87.9226 278.7456 0001640  73.6236 286.5079 13.21825321148496
ONEWEB-0586             
1 54653U 22166M   25358.79583821  .00000027  00000+0  34703-4 0  9995
2 54653  87.9224 278.7835 0001865  77.8460 282.2883 13.21823638148484
ONEWEB-0587             
1 54654U 22166N   25358.80570465  .00000070  00000+0  13831-3 0  9994
2 54654  87.9237 278.7385 0001435  66.3913 293.7372 13.21827382148646
